STARLINK-35481          
1 66247U 25245P   25322.50002315 -.02016372  00000+0 -28272-1 0  9997
2 66247  53.1601  84.2164 0001400  67.8579 109.1255 15.59682244  4211
STARLINK-35416          
1 66248U 25245Q   25322.50002315 -.02014020  00000+0 -28235-1 0  9995
2 66248  53.1601  84.2131 0001325  66.9122 111.9851 15.59682553  4155
STARLINK-35304          
1 66249U 25245R   25322.50002315 -.02023259  00000+0 -28378-1 0  9998
2 66249  53.1600  84.2012 0001388  65.4000 119.2478 15.59686967  3991
STARLINK-35338          
1 66250U 25245S   25322.50002315 -.02002535  00000+0 -28060-1 0  9992
2 66250  53.1599  84.2086 0001383  62.1858 118.6316 15.59673490  4106
STARLINK-35485          
1 66251U 25245T   25322.50002315 -.02015906  00000+0 -28265-1 0  9996
2 66251  53.1600  84.2051 0001378  66.4721 116.2604 15.59681972  3996
STARLINK-35483          
1 66252U 25245U   25322.50002315 -.02020542  00000+0 -28337-1 0  9999
2 66252  53.1603  84.1964 0001338  67.1700 119.3954 15.59685137  4162
STARLINK-35486          
1 66253U 25245V   25322.50002315 -.02016300  00000+0 -28272-1 0  9995
2 66253  53.1600  84.1928 0001367  69.3752 119.1097 15.59681876  3995
STARLINK-35488          
1 66254U 25245W   25322.50002315 -.02013986  00000+0 -28237-1 0  9994
2 66254  53.1600  84.1878 0001301  66.5830 123.8183 15.59680974  4216
STARLINK-35616          
1 66255U 25245X   25322.50002315 -.02017904  00000+0 -28296-1 0  9994
2 66255  53.1602  84.1842 0001303  68.9637 123.3526 15.59684326  4214
STARLINK-35619          
1 66256U 25245Y   25322.50002315 -.02005050  00000+0 -28098-1 0  9994
2 66256  53.1599  84.1725 0001378  67.8735 130.1961 15.59676163  4218
STARLINK-35615          
1 66257U 25245Z   25322.50002315 -.02003069  00000+0 -28067-1 0  9999
2 66257  53.1600  84.1768 0001446  68.5695 127.5840 15.59674795  4213
STARLINK-34650          
1 66258U 25245AA  25322.50002315 -.02018044  00000+0 -28297-1 0  9994
2 66258  53.1602  84.1803 0001347  76.2232 118.0097 15.59684608  4212
