CCSDS_OMM_VERS = 2.0
CREATION_DATE  = 
ORIGINATOR     = 

OBJECT_NAME    = STARLINK-35481
OBJECT_ID      = 2025-245P
CENTER_NAME    = EARTH
REF_FRAME      = TEME
TIME_SYSTEM    = UTC
MEAN_ELEMENT_THEORY = SGP/SGP4

EPOCH          = 2025-11-18T12:00:02.000160
MEAN_MOTION    = 15.59682244
ECCENTRICITY   = .00014
INCLINATION    = 53.1601
RA_OF_ASC_NODE = 84.2164
ARG_OF_PERICENTER = 67.8579
MEAN_ANOMALY   = 109.1255

EPHEMERIS_TYPE = 0
CLASSIFICATION_TYPE = U
NORAD_CAT_ID   = 66247
ELEMENT_SET_NO = 999
REV_AT_EPOCH   = 421
BSTAR          = -.28272E-1
MEAN_MOTION_DOT = -.2016372E-1
MEAN_MOTION_DDOT = 0

CCSDS_OMM_VERS = 2.0
CREATION_DATE  = 
ORIGINATOR     = 

OBJECT_NAME    = STARLINK-35416
OBJECT_ID      = 2025-245Q
CENTER_NAME    = EARTH
REF_FRAME      = TEME
TIME_SYSTEM    = UTC
MEAN_ELEMENT_THEORY = SGP/SGP4

EPOCH          = 2025-11-18T12:00:02.000160
MEAN_MOTION    = 15.59682553
ECCENTRICITY   = .0001325
INCLINATION    = 53.1601
RA_OF_ASC_NODE = 84.2131
ARG_OF_PERICENTER = 66.9122
MEAN_ANOMALY   = 111.9851

EPHEMERIS_TYPE = 0
CLASSIFICATION_TYPE = U
NORAD_CAT_ID   = 66248
ELEMENT_SET_NO = 999
REV_AT_EPOCH   = 415
BSTAR          = -.28235E-1
MEAN_MOTION_DOT = -.201402E-1
MEAN_MOTION_DDOT = 0

CCSDS_OMM_VERS = 2.0
CREATION_DATE  = 
ORIGINATOR     = 

OBJECT_NAME    = STARLINK-35304
OBJECT_ID      = 2025-245R
CENTER_NAME    = EARTH
REF_FRAME      = TEME
TIME_SYSTEM    = UTC
MEAN_ELEMENT_THEORY = SGP/SGP4

EPOCH          = 2025-11-18T12:00:02.000160
MEAN_MOTION    = 15.59686967
ECCENTRICITY   = .0001388
INCLINATION    = 53.1600
RA_OF_ASC_NODE = 84.2012
ARG_OF_PERICENTER = 65.4000
MEAN_ANOMALY   = 119.2478

EPHEMERIS_TYPE = 0
CLASSIFICATION_TYPE = U
NORAD_CAT_ID   = 66249
ELEMENT_SET_NO = 999
REV_AT_EPOCH   = 399
BSTAR          = -.28378E-1
MEAN_MOTION_DOT = -.2023259E-1
MEAN_MOTION_DDOT = 0

CCSDS_OMM_VERS = 2.0
CREATION_DATE  = 
ORIGINATOR     = 

OBJECT_NAME    = STARLINK-35338
OBJECT_ID      = 2025-245S
CENTER_NAME    = EARTH
REF_FRAME      = TEME
TIME_SYSTEM    = UTC
MEAN_ELEMENT_THEORY = SGP/SGP4

EPOCH          = 2025-11-18T12:00:02.000160
MEAN_MOTION    = 15.59673490
ECCENTRICITY   = .0001383
INCLINATION    = 53.1599
RA_OF_ASC_NODE = 84.2086
ARG_OF_PERICENTER = 62.1858
MEAN_ANOMALY   = 118.6316

EPHEMERIS_TYPE = 0
CLASSIFICATION_TYPE = U
NORAD_CAT_ID   = 66250
ELEMENT_SET_NO = 999
REV_AT_EPOCH   = 410
BSTAR          = -.2806E-1
MEAN_MOTION_DOT = -.2002535E-1
MEAN_MOTION_DDOT = 0

CCSDS_OMM_VERS = 2.0
CREATION_DATE  = 
ORIGINATOR     = 

OBJECT_NAME    = STARLINK-35485
OBJECT_ID      = 2025-245T
CENTER_NAME    = EARTH
REF_FRAME      = TEME
TIME_SYSTEM    = UTC
MEAN_ELEMENT_THEORY = SGP/SGP4

EPOCH          = 2025-11-18T12:00:02.000160
MEAN_MOTION    = 15.59681972
ECCENTRICITY   = .0001378
INCLINATION    = 53.1600
RA_OF_ASC_NODE = 84.2051
ARG_OF_PERICENTER = 66.4721
MEAN_ANOMALY   = 116.2604

EPHEMERIS_TYPE = 0
CLASSIFICATION_TYPE = U
NORAD_CAT_ID   = 66251
ELEMENT_SET_NO = 999
REV_AT_EPOCH   = 399
BSTAR          = -.28265E-1
MEAN_MOTION_DOT = -.2015906E-1
MEAN_MOTION_DDOT = 0

CCSDS_OMM_VERS = 2.0
CREATION_DATE  = 
ORIGINATOR     = 

OBJECT_NAME    = STARLINK-35483
OBJECT_ID      = 2025-245U
CENTER_NAME    = EARTH
REF_FRAME      = TEME
TIME_SYSTEM    = UTC
MEAN_ELEMENT_THEORY = SGP/SGP4

EPOCH          = 2025-11-18T12:00:02.000160
MEAN_MOTION    = 15.59685137
ECCENTRICITY   = .0001338
INCLINATION    = 53.1603
RA_OF_ASC_NODE = 84.1964
ARG_OF_PERICENTER = 67.1700
MEAN_ANOMALY   = 119.3954

EPHEMERIS_TYPE = 0
CLASSIFICATION_TYPE = U
NORAD_CAT_ID   = 66252
ELEMENT_SET_NO = 999
REV_AT_EPOCH   = 416
BSTAR          = -.28337E-1
MEAN_MOTION_DOT = -.2020542E-1
MEAN_MOTION_DDOT = 0

CCSDS_OMM_VERS = 2.0
CREATION_DATE  = 
ORIGINATOR     = 

OBJECT_NAME    = STARLINK-35486
OBJECT_ID      = 2025-245V
CENTER_NAME    = EARTH
REF_FRAME      = TEME
TIME_SYSTEM    = UTC
MEAN_ELEMENT_THEORY = SGP/SGP4

EPOCH          = 2025-11-18T12:00:02.000160
MEAN_MOTION    = 15.59681876
ECCENTRICITY   = .0001367
INCLINATION    = 53.1600
RA_OF_ASC_NODE = 84.1928
ARG_OF_PERICENTER = 69.3752
MEAN_ANOMALY   = 119.1097

EPHEMERIS_TYPE = 0
CLASSIFICATION_TYPE = U
NORAD_CAT_ID   = 66253
ELEMENT_SET_NO = 999
REV_AT_EPOCH   = 399
BSTAR          = -.28272E-1
MEAN_MOTION_DOT = -.20163E-1
MEAN_MOTION_DDOT = 0

CCSDS_OMM_VERS = 2.0
CREATION_DATE  = 
ORIGINATOR     = 

OBJECT_NAME    = STARLINK-35488
OBJECT_ID      = 2025-245W
CENTER_NAME    = EARTH
REF_FRAME      = TEME
TIME_SYSTEM    = UTC
MEAN_ELEMENT_THEORY = SGP/SGP4

EPOCH          = 2025-11-18T12:00:02.000160
MEAN_MOTION    = 15.59680974
ECCENTRICITY   = .0001301
INCLINATION    = 53.1600
RA_OF_ASC_NODE = 84.1878
ARG_OF_PERICENTER = 66.5830
MEAN_ANOMALY   = 123.8183

EPHEMERIS_TYPE = 0
CLASSIFICATION_TYPE = U
NORAD_CAT_ID   = 66254
ELEMENT_SET_NO = 999
REV_AT_EPOCH   = 421
BSTAR          = -.28237E-1
MEAN_MOTION_DOT = -.2013986E-1
MEAN_MOTION_DDOT = 0

CCSDS_OMM_VERS = 2.0
CREATION_DATE  = 
ORIGINATOR     = 

OBJECT_NAME    = STARLINK-35616
OBJECT_ID      = 2025-245X
CENTER_NAME    = EARTH
REF_FRAME      = TEME
TIME_SYSTEM    = UTC
MEAN_ELEMENT_THEORY = SGP/SGP4

EPOCH          = 2025-11-18T12:00:02.000160
MEAN_MOTION    = 15.59684326
ECCENTRICITY   = .0001303
INCLINATION    = 53.1602
RA_OF_ASC_NODE = 84.1842
ARG_OF_PERICENTER = 68.9637
MEAN_ANOMALY   = 123.3526

EPHEMERIS_TYPE = 0
CLASSIFICATION_TYPE = U
NORAD_CAT_ID   = 66255
ELEMENT_SET_NO = 999
REV_AT_EPOCH   = 421
BSTAR          = -.28296E-1
MEAN_MOTION_DOT = -.2017904E-1
MEAN_MOTION_DDOT = 0

CCSDS_OMM_VERS = 2.0
CREATION_DATE  = 
ORIGINATOR     = 

OBJECT_NAME    = STARLINK-35619
OBJECT_ID      = 2025-245Y
CENTER_NAME    = EARTH
REF_FRAME      = TEME
TIME_SYSTEM    = UTC
MEAN_ELEMENT_THEORY = SGP/SGP4

EPOCH          = 2025-11-18T12:00:02.000160
MEAN_MOTION    = 15.59676163
ECCENTRICITY   = .0001378
INCLINATION    = 53.1599
RA_OF_ASC_NODE = 84.1725
ARG_OF_PERICENTER = 67.8735
MEAN_ANOMALY   = 130.1961

EPHEMERIS_TYPE = 0
CLASSIFICATION_TYPE = U
NORAD_CAT_ID   = 66256
ELEMENT_SET_NO = 999
REV_AT_EPOCH   = 421
BSTAR          = -.28098E-1
MEAN_MOTION_DOT = -.200505E-1
MEAN_MOTION_DDOT = 0

CCSDS_OMM_VERS = 2.0
CREATION_DATE  = 
ORIGINATOR     = 

OBJECT_NAME    = STARLINK-35615
OBJECT_ID      = 2025-245Z
CENTER_NAME    = EARTH
REF_FRAME      = TEME
TIME_SYSTEM    = UTC
MEAN_ELEMENT_THEORY = SGP/SGP4

EPOCH          = 2025-11-18T12:00:02.000160
MEAN_MOTION    = 15.59674795
ECCENTRICITY   = .0001446
INCLINATION    = 53.1600
RA_OF_ASC_NODE = 84.1768
ARG_OF_PERICENTER = 68.5695
MEAN_ANOMALY   = 127.5840

EPHEMERIS_TYPE = 0
CLASSIFICATION_TYPE = U
NORAD_CAT_ID   = 66257
ELEMENT_SET_NO = 999
REV_AT_EPOCH   = 421
BSTAR          = -.28067E-1
MEAN_MOTION_DOT = -.2003069E-1
MEAN_MOTION_DDOT = 0

CCSDS_OMM_VERS = 2.0
CREATION_DATE  = 
ORIGINATOR     = 

OBJECT_NAME    = STARLINK-34650
OBJECT_ID      = 2025-245AA
CENTER_NAME    = EARTH
REF_FRAME      = TEME
TIME_SYSTEM    = UTC
MEAN_ELEMENT_THEORY = SGP/SGP4

EPOCH          = 2025-11-18T12:00:02.000160
MEAN_MOTION    = 15.59684608
ECCENTRICITY   = .0001347
INCLINATION    = 53.1602
RA_OF_ASC_NODE = 84.1803
ARG_OF_PERICENTER = 76.2232
MEAN_ANOMALY   = 118.0097

EPHEMERIS_TYPE = 0
CLASSIFICATION_TYPE = U
NORAD_CAT_ID   = 66258
ELEMENT_SET_NO = 999
REV_AT_EPOCH   = 421
BSTAR          = -.28297E-1
MEAN_MOTION_DOT = -.2018044E-1
MEAN_MOTION_DDOT = 0

